{
    "links": {
        "self": "http://www.neowsapp.com/rest/v1/neo/54087755?api_key=iIulBulltgU6a56xZRHN4H3l9WmuAYTsLGpBGhQ2"
    },
    "id": "54087755",
    "neo_reference_id": "54087755",
    "name": "(2020 VO3)",
    "designation": "2020 VO3",
    "nasa_jpl_url": "http://ssd.jpl.nasa.gov/sbdb.cgi?sstr=54087755",
    "absolute_magnitude_h": 23.136,
    "estimated_diameter": {
        "kilometers": {
            "estimated_diameter_min": 0.0627126246,
            "estimated_diameter_max": 0.1402296916
        },
        "meters": {
            "estimated_diameter_min": 62.7126245561,
            "estimated_diameter_max": 140.2296915549
        },
        "miles": {
            "estimated_diameter_min": 0.0389678062,
            "estimated_diameter_max": 0.0871346637
        },
        "feet": {
            "estimated_diameter_min": 205.7500871487,
            "estimated_diameter_max": 460.0711812409
        }
    },
    "is_potentially_hazardous_asteroid": false,
    "close_approach_data": [
        {
            "close_approach_date": "2020-11-17",
            "close_approach_date_full": "2020-Nov-17 16:32",
            "epoch_date_close_approach": 1605630720000,
            "relative_velocity": {
                "kilometers_per_second": "14.5745473405",
                "kilometers_per_hour": "52468.3704258864",
                "miles_per_hour": "32601.8049460181"
            },
            "miss_distance": {
                "astronomical": "0.1478012947",
                "lunar": "57.4947036383",
                "kilometers": "22110758.870362289",
                "miles": "13738988.4766820282"
            },
            "orbiting_body": "Earth"
        },
        {
            "close_approach_date": "2021-05-11",
            "close_approach_date_full": "2021-May-11 05:04",
            "epoch_date_close_approach": 1620709440000,
            "relative_velocity": {
                "kilometers_per_second": "14.2424433915",
                "kilometers_per_hour": "51272.7962093194",
                "miles_per_hour": "31858.9216223962"
            },
            "miss_distance": {
                "astronomical": "0.2445811861",
                "lunar": "95.1420813929",
                "kilometers": "36588824.482633607",
                "miles": "22735241.2863614966"
            },
            "orbiting_body": "Earth"
        }
    ],
    "orbital_data": {
        "orbit_id": "5",
        "orbit_determination_date": "2020-11-27 05:18:56",
        "first_observation_date": "2020-11-11",
        "last_observation_date": "2020-11-26",
        "data_arc_in_days": 15,
        "observations_used": 38,
        "orbit_uncertainty": "9",
        "minimum_orbit_intersection": ".0651651",
        "jupiter_tisserand_invariant": "5.502",
        "epoch_osculation": "2459169.5",
        "eccentricity": ".06770353120164457",
        "semi_major_axis": "1.112433168780319",
        "inclination": "26.69158014429629",
        "ascending_node_longitude": "56.55410190253342",
        "orbital_period": "428.5577182836117",
        "perihelion_distance": "1.037117515028056",
        "perihelion_argument": "41.26659064933267",
        "aphelion_distance": "1.187748822532581",
        "perihelion_time": "2459207.367605222995",
        "mean_anomaly": "328.1901939956275",
        "mean_motion": ".8400268730238071",
        "equinox": "J2000",
        "orbit_class": {
            "orbit_class_type": "AMO",
            "orbit_class_description": "Near-Earth asteroid orbits similar to that of 1221 Amor",
            "orbit_class_range": "1.017 AU < q (perihelion) < 1.3 AU"
        }
    },
    "is_sentry_object": false
}